HISPASAT 36W-1          
1 41942U 17006A   25283.12665242 -.00000246  00000+0  00000+0 0  9993
2 41942   0.0052 262.7120 0001060 286.4328 199.4619  1.00271942 31716
TELKOM 3S               
1 41944U 17007A   25282.72910698 -.00000363  00000+0  00000+0 0  9999
2 41944   0.0171 241.1410 0002782 335.0048 182.9331  1.00269140 31620
INTELSAT 32E (IS-32E)   
1 41945U 17007B   25283.12526574 -.00000270  00000+0  00000+0 0  9998
2 41945   0.0248 105.2857 0000284 251.7280  23.9007  1.00274425 31714
CARTOSAT-2D             
1 41948U 17008A   25283.27201524  .00005892  00000+0  28332-3 0  9999
2 41948  97.4474 341.7012 0005799  36.0131 324.1493 15.19167541479630
SENTINEL-2B             
1 42063U 17013A   25283.34735146  .00000177  00000+0  84347-4 0  9994
2 42063  98.5690 356.7106 0001004  88.4739 271.6559 14.30811988448910
ECHOSTAR 23             
1 42070U 17014A   25282.54121274 -.00000057  00000+0  00000+0 0  9992
2 42070   0.0178 193.4060 0002151   8.3658 261.5904  1.00272009 31410
WGS F9 (USA 275)        
1 42075U 17016A   25282.82128216  .00000000  00000+0  00000+0 0  9990
2 42075   0.0204 219.1732 0000546  15.2694  67.8582  1.00271248 31389
SES-10                  
1 42432U 17017A   25283.11622508 -.00000274  00000+0  00000+0 0  9998
2 42432   0.0498  56.5830 0002849 151.0102 146.3367  1.00272037 31239
CHINASAT 16 (SJ-13)     
1 42662U 17018A   25283.01303192 -.00000353  00000+0  00000+0 0  9996
2 42662   0.0490  85.6377 0007716 149.7059 258.7567  1.00272803 31239
KOREASAT 7              
1 42691U 17023A   25282.98586484 -.00000363  00000+0  00000+0 0  9997
2 42691   0.0390  12.9681 0001605 187.8606 288.8392  1.00270543 30860
SGDC                    
1 42692U 17023B   25282.15779063 -.00000249  00000+0  00000+0 0  9997
2 42692   0.0300  71.8090 0003432 149.2500 138.9452  1.00270454 30891
GSAT-9                  
1 42695U 17024A   25283.08175889 -.00000287  00000+0  00000+0 0  9992
2 42695   0.0190 144.2630 0002383  46.1526 315.2800  1.00270027 30795
INMARSAT 5-F4           
1 42698U 17025A   25283.14502584  .00000074  00000+0  00000+0 0  9992
2 42698   0.0127 183.0468 0000595  68.1892 236.4836  1.00271063 30773
SES-15                  
1 42709U 17026A   25282.69350572  .00000060  00000+0  00000+0 0  9998
2 42709   0.0376   3.9606 0000301 229.4877 265.6114  1.00267179  4920
COSMOS 2518             
1 42719U 17027A   25279.75809959  .00000587  00000+0 -14078-1 0  9998
2 42719  63.0678 280.1194 7109353 273.0432  14.9382  2.00744431 61312
QZS-2 (MICHIBIKI-2)     
1 42738U 17028A   25282.76155949 -.00000184  00000+0  00000+0 0  9999
2 42738  39.8199 246.8210 0746534 270.7032 275.0984  1.00254335  5113
VIASAT-2                
1 42740U 17029A   25282.40635877 -.00000265  00000+0  00000+0 0  9997
2 42740   0.0179 258.6882 0000558  13.5993 182.3634  1.00269673 30681
EUTELSAT 172B           
1 42741U 17029B   25283.23923293 -.00000007  00000+0  00000+0 0  9996
2 42741   0.0201 161.7833 0000205  95.2902  20.1582  1.00271469 31222
GSAT-19                 
1 42747U 17031A   25283.14329250  .00000124  00000+0  00000+0 0  9997
2 42747   0.0430  89.9718 0004510  81.7153 306.7818  1.00270039 30648
ECHOSTAR 21             
1 42749U 17032A   25283.13583913  .00000062  00000+0  00000+0 0  9998
2 42749   1.8847 339.8110 0002625 211.9363 246.4170  1.00270000 30592
HXMT (HUIYAN)           
1 42758U 17034A   25283.26540904  .00006326  00000+0  33844-3 0  9992
2 42758  43.0129 131.5881 0033159   2.4422 357.6582 15.15210477459703
ZHUHAI-1 02 (CAS-4B)    
1 42759U 17034B   25283.32775736  .01159840  83323-3  11369-2 0  9994
2 42759  42.9925 296.8275 0014295  89.3897 270.8623 16.10478765461963
ZHUHAI-1 01 (CAS-4A)    
1 42761U 17034D   25281.34159269  .04203186  90411-5  12507-2 0  9993
2 42761  42.9927 303.5081 0008135  81.2710 278.9099 16.26032227461692
CARTOSAT-2E             
1 42767U 17036C   25283.28815421  .00005791  00000+0  27798-3 0  9991
2 42767  97.4642 341.6674 0003892  90.5522 269.6158 15.19243953460207
BULGARIASAT-1           
1 42801U 17038A   25283.13419245  .00000010  00000+0  00000+0 0  9992
2 42801   0.0588  88.8397 0002679 113.1320 227.2410  1.00271877 30325
IRIDIUM 113             
1 42803U 17039A   25283.32952801  .00000297  00000+0  98900-4 0  9994
2 42803  86.3943  66.5968 0002196  95.6661 264.4785 14.34218321435370
IRIDIUM 123             
1 42804U 17039B   25283.23146827  .00000056  00000+0  12840-4 0  9990
2 42804  86.3914  98.1403 0002293  82.3799 277.7657 14.34217775434126
IRIDIUM 120             
1 42805U 17039C   25283.32318361  .00000214  00000+0  69414-4 0  9990
2 42805  86.3934  66.4141 0001912  85.3311 274.8104 14.34217662435363
IRIDIUM 115             
1 42806U 17039D   25283.31956527  .00000570  00000+0  16355-3 0  9992
2 42806  86.4469  66.5102 0002397  76.4991 283.6477 14.43281577438224
IRIDIUM 118             
1 42807U 17039E   25283.19341327  .00000014  00000+0 -20083-5 0  9994
2 42807  86.3917  98.1555 0002197  93.8617 266.2830 14.34217541434115
IRIDIUM 117             
1 42808U 17039F   25283.21244100  .00000074  00000+0  19205-4 0  9997
2 42808  86.3909  98.1072 0002277  85.6693 274.4764 14.34217824434147
IRIDIUM 126             
1 42809U 17039G   25283.23781841  .00000123  00000+0  36754-4 0  9991
2 42809  86.3914  98.1439 0002325  91.1198 269.0264 14.34217073434126
IRIDIUM 124             
1 42810U 17039H   25283.32271038  .00000635  00000+0  18277-3 0  9992
2 42810  86.4521  34.8028 0002187  89.4682 270.6770 14.43281191439079
IRIDIUM 128             
1 42811U 17039J   25283.08900656  .00000223  00000+0  72532-4 0  9999
2 42811  86.3954 129.7338 0002003  74.4263 285.7154 14.34217560434137
IRIDIUM 121             
1 42812U 17039K   25283.18707070  .00000088  00000+0  24377-4 0  9999
2 42812  86.3913  98.1910 0001983  86.8959 273.2464 14.34219003433996
HELLAS-SAT 3            
1 42814U 17040A   25283.14155916  .00000151  00000+0  00000+0 0  9998
2 42814   0.0902  57.9731 0000359  77.2433 333.7449  1.00271393 30302
GSAT-17                 
1 42815U 17040B   25283.08089222 -.00000259  00000+0  00000+0 0  9998
2 42815   0.0558  92.5707 0006145 161.2309 247.7894  1.00271525 30285
INTELSAT 35E (IS-35E)   
1 42818U 17041A   25283.12699909 -.00000239  00000+0  00000+0 0  9994
2 42818   0.0192 229.9410 0002677 347.8300 172.4553  1.00271323 30303
KANOPUS-V-IK            
1 42825U 17042A   25283.31306440  .00003865  00000+0  16673-3 0  9993
2 42825  97.3667 188.6105 0001881  90.0054 270.1399 15.23127584457337
NORSAT 1                
1 42826U 17042B   25283.20031828  .00009016  00000+0  56334-3 0  9999
2 42826  97.4274  92.5484 0006825 219.5339 140.5394 15.09662709449459
NORSAT 2                
1 42828U 17042D   25282.99553394  .00011079  00000+0  59510-3 0  9994
2 42828  97.3920  96.8005 0010579 201.1154 158.9643 15.15032012449766
TECHNOSAT               
1 42829U 17042E   25283.21699211  .00005143  00000+0  38891-3 0  9994
2 42829  97.3993  86.2084 0017914 226.6094 133.3640 15.02637143449139
FLYING LAPTOP           
1 42831U 17042G   25283.34610064  .00003753  00000+0  31109-3 0  9990
2 42831  97.4220  84.9308 0009174 255.2078 104.8130 14.99367178448992
WNISAT 1R               
1 42835U 17042L   25283.21417600  .00003946  00000+0  32319-3 0  9999
2 42835  97.4227  84.7960 0007937 256.1331 103.9010 14.99817724449010
LEMUR-2-GREENBERG       
1 42837U 17042N   25283.05099215  .00015793  00000+0  70066-3 0  9995
2 42837  97.3727 101.6965 0010791 164.0336 196.1242 15.21612476450223
LEMUR-2-ANDIS           
1 42838U 17042P   25282.47839903  .00018900  00000+0  80801-3 0  9998
2 42838  97.3643 100.8128 0011099 171.5600 188.5825 15.22833883450143
LEMUR-2-MONSON          
1 42839U 17042Q   25283.04376129  .00013214  00000+0  63027-3 0  9993
2 42839  97.3995 101.8861 0008319 150.6146 209.5558 15.19178691450077
LEMUR-2-FURIAUS         
1 42840U 17042R   25283.21175934  .00015419  00000+0  72385-3 0  9991
2 42840  97.3723 100.5593 0008447 219.5829 140.4791 15.19692780450118
LEMUR-2-PETERG          
1 42841U 17042S   25282.98177635  .00018378  00000+0  80032-3 0  9990
2 42841  97.3951 104.7975 0005111 136.8804 223.2833 15.22256890450222
LEMUR-2-DEMBITZ         
1 42842U 17042T   25283.21657221  .00017351  00000+0  79688-3 0  9997
2 42842  97.3792 103.1301 0008093 172.6045 187.5311 15.20426063450232
NANOACE                 
1 42844U 17042V   25283.04847693  .00012425  00000+0  63098-3 0  9999
2 42844  97.3631  97.7937 0004967 163.8509 196.2884 15.17020008450059
LEMUR-2-ZACHARY         
1 42845U 17042W   25283.02689041  .00024378  00000+0  82944-3 0  9990
2 42845  97.3704 108.0334 0004250 192.7082 167.4053 15.30413945450701
CORVUS BC2              
1 42846U 17042X   25282.98156032  .00004098  00000+0  30089-3 0  9994
2 42846  97.3844  89.8358 0012144 244.1562 115.8412 15.03933550449427
CORVUS BC1              
1 42847U 17042Y   25283.21202995  .00005466  00000+0  39733-3 0  9997
2 42847  97.3880  90.6848 0011798 219.2796 140.7576 15.04177327449485
COSMOS 2520             
1 42907U 17046A   25283.14767281  .00000135  00000+0  00000+0 0  9993
2 42907   0.0267 115.3642 0000554 219.7296 142.1079  1.00271365 29898
TDRS 13                 
1 42915U 17047A   25283.13150578 -.00000104  00000+0  00000+0 0  9994
2 42915   3.4283 356.2420 0012824 129.9229 288.6296  1.00271529 29847
QZS-3 (MICHIBIKI-3)     
1 42917U 17048A   25283.01623860 -.00000349  00000+0  00000+0 0  9994
2 42917   0.0646 144.2000 0002346  61.0195 306.5587  1.00270057 29758
FORMOSAT-5              
1 42920U 17049A   25283.26126925  .00000318  00000+0  91569-4 0  9996
2 42920  98.2508 358.8232 0012066 123.6943 236.5404 14.50948920430435
ORS-5 SENSORSAT         
1 42921U 17050A   25282.13351490  .00003835  00000+0  23765-3 0  9990
2 42921   0.0472 216.0617 0010720 280.2099 223.8133 14.99573450443321
